{"type": "FeatureCollection", "features": [ {"type": "Feature", "properties": {"norad_id": 66830, "name": "STARLINK-35881", "group": "last-30-days", "lat": -18.76949090436222, "lon": -0.5227893948924974, "alt_km": 413.311036470428, "timestamp": "2025-12-22T05:49:02.186594+00:00", "meta": {"OBJECT_NAME": "STARLINK-35881", "OBJECT_ID": "2025-280K", "EPOCH": "2025-12-21T20:00:01.999008", "MEAN_MOTION": 15.52438715, "ECCENTRICITY": 0.0003172, "INCLINATION": 70, "RA_OF_ASC_NODE": 173.4868, "ARG_OF_PERICENTER": 273.2199, "MEAN_ANOMALY": 161.3764, "EPHEMERIS_TYPE": 0, "CLASSIFICATION_TYPE": "U", "NORAD_CAT_ID": 66830, "ELEMENT_SET_NO": 999, "REV_AT_EPOCH": 435, "BSTAR": 0.001431, "MEAN_MOTION_DOT": 0.00088599, "MEAN_MOTION_DDOT": 0}, "tle": {"line1": "1 66830U 25280K   25355.83335647  .00088599  00000+0  14310-2 0  9998", "line2": "2 66830  70.0000 173.4868 0003172 273.2199 161.3764 15.52438715  4356"}}, "geometry": {"type": "Point", "coordinates": [-0.5227893948924974, -18.76949090436222]}}, {"type": "Feature", "properties": {"norad_id": 66831, "name": "STARLINK-35788", "group": "last-30-days", "lat": -20.489365938059553, "lon": 0.18968477778509668, "alt_km": 413.6517320026287, "timestamp": "2025-12-22T05:49:02.186608+00:00", "meta": {"OBJECT_NAME": "STARLINK-35788", "OBJECT_ID": "2025-280L", "EPOCH": "2025-12-21T20:00:01.999008", "MEAN_MOTION": 15.5246708, "ECCENTRICITY": 0.0003363, "INCLINATION": 69.9998, "RA_OF_ASC_NODE": 173.487, "ARG_OF_PERICENTER": 282.1998, "MEAN_ANOMALY": 154.2145, "EPHEMERIS_TYPE": 0, "CLASSIFICATION_TYPE": "U", "NORAD_CAT_ID": 66831, "ELEMENT_SET_NO": 999, "REV_AT_EPOCH": 435, "BSTAR": 0.0011761, "MEAN_MOTION_DOT": 0.00072716, "MEAN_MOTION_DDOT": 0}, "tle": {"line1": "1 66831U 25280L   25355.83335647  .00072716  00000+0  11761-2 0  9990", "line2": "2 66831  69.9998 173.4870 0003363 282.1998 154.2145 15.52467080  4352"}}, "geometry": {"type": "Point", "coordinates": [0.18968477778509668, -20.489365938059553]}}, {"type": "Feature", "properties": {"norad_id": 66832, "name": "STARLINK-35768", "group": "last-30-days", "lat": -22.262130841077123, "lon": 0.9385756912748793, "alt_km": 413.4797533221681, "timestamp": "2025-12-22T05:49:02.186618+00:00", "meta": {"OBJECT_NAME": "STARLINK-35768", "OBJECT_ID": "2025-280M", "EPOCH": "2025-12-21T20:00:01.999008", "MEAN_MOTION": 15.52460122, "ECCENTRICITY": 0.0003233, "INCLINATION": 70.0001, "RA_OF_ASC_NODE": 173.4836, "ARG_OF_PERICENTER": 274.8083, "MEAN_ANOMALY": 163.5176, "EPHEMERIS_TYPE": 0, "CLASSIFICATION_TYPE": "U", "NORAD_CAT_ID": 66832, "ELEMENT_SET_NO": 999, "REV_AT_EPOCH": 435, "BSTAR": 0.0012587, "MEAN_MOTION_DOT": 0.00077865, "MEAN_MOTION_DDOT": 0}, "tle": {"line1": "1 66832U 25280M   25355.83335647  .00077865  00000+0  12587-2 0  9998", "line2": "2 66832  70.0001 173.4836 0003233 274.8083 163.5176 15.52460122  4359"}}, "geometry": {"type": "Point", "coordinates": [0.9385756912748793, -22.262130841077123]}}, {"type": "Feature", "properties": {"norad_id": 66833, "name": "STARLINK-35858", "group": "last-30-days", "lat": -24.06496619602257, "lon": 1.7236452730838743, "alt_km": 413.548692959298, "timestamp": "2025-12-22T05:49:02.186628+00:00", "meta": {"OBJECT_NAME": "STARLINK-35858", "OBJECT_ID": "2025-280N", "EPOCH": "2025-12-21T20:00:01.999008", "MEAN_MOTION": 15.52551962, "ECCENTRICITY": 0.0003479, "INCLINATION": 70, "RA_OF_ASC_NODE": 173.4821, "ARG_OF_PERICENTER": 273.385, "MEAN_ANOMALY": 166.8476, "EPHEMERIS_TYPE": 0, "CLASSIFICATION_TYPE": "U", "NORAD_CAT_ID": 66833, "ELEMENT_SET_NO": 999, "REV_AT_EPOCH": 435, "BSTAR": -0.0013457, "MEAN_MOTION_DOT": -0.00082205, "MEAN_MOTION_DDOT": 0}, "tle": {"line1": "1 66833U 25280N   25355.83335647 -.00082205  00000+0 -13457-2 0  9992", "line2": "2 66833  70.0000 173.4821 0003479 273.3850 166.8476 15.52551962  4353"}}, "geometry": {"type": "Point", "coordinates": [1.7236452730838743, -24.06496619602257]}}, {"type": "Feature", "properties": {"norad_id": 66834, "name": "STARLINK-35840", "group": "last-30-days", "lat": -25.836451533231354, "lon": 2.516582621967826, "alt_km": 413.47716527591547, "timestamp": "2025-12-22T05:49:02.186638+00:00", "meta": {"OBJECT_NAME": "STARLINK-35840", "OBJECT_ID": "2025-280P", "EPOCH": "2025-12-21T20:00:01.999008", "MEAN_MOTION": 15.52457397, "ECCENTRICITY": 0.0003315, "INCLINATION": 70.0001, "RA_OF_ASC_NODE": 173.4785, "ARG_OF_PERICENTER": 271.2709, "MEAN_ANOMALY": 170.9161, "EPHEMERIS_TYPE": 0, "CLASSIFICATION_TYPE": "U", "NORAD_CAT_ID": 66834, "ELEMENT_SET_NO": 999, "REV_AT_EPOCH": 435, "BSTAR": 0.0012663, "MEAN_MOTION_DOT": 0.00078336, "MEAN_MOTION_DDOT": 0}, "tle": {"line1": "1 66834U 25280P   25355.83335647  .00078336  00000+0  12663-2 0  9999", "line2": "2 66834  70.0001 173.4785 0003315 271.2709 170.9161 15.52457397  4357"}}, "geometry": {"type": "Point", "coordinates": [2.516582621967826, -25.836451533231354]}}, {"type": "Feature", "properties": {"norad_id": 66835, "name": "STARLINK-35890", "group": "last-30-days", "lat": -27.607373919430017, "lon": 3.336994911934499, "alt_km": 413.62411528551183, "timestamp": "2025-12-22T05:49:02.186648+00:00", "meta": {"OBJECT_NAME": "STARLINK-35890", "OBJECT_ID": "2025-280Q", "EPOCH": "2025-12-21T20:00:01.999008", "MEAN_MOTION": 15.52461448, "ECCENTRICITY": 0.0003181, "INCLINATION": 70.0002, "RA_OF_ASC_NODE": 173.4764, "ARG_OF_PERICENTER": 272.6478, "MEAN_ANOMALY": 171.4531, "EPHEMERIS_TYPE": 0, "CLASSIFICATION_TYPE": "U", "NORAD_CAT_ID": 66835, "ELEMENT_SET_NO": 999, "REV_AT_EPOCH": 435, "BSTAR": 0.0011996, "MEAN_MOTION_DOT": 0.00074169, "MEAN_MOTION_DDOT": 0}, "tle": {"line1": "1 66835U 25280Q   25355.83335647  .00074169  00000+0  11996-2 0  9998", "line2": "2 66835  70.0002 173.4764 0003181 272.6478 171.4531 15.52461448  4354"}}, "geometry": {"type": "Point", "coordinates": [3.336994911934499, -27.607373919430017]}}, {"type": "Feature", "properties": {"norad_id": 66836, "name": "STARLINK-35838", "group": "last-30-days", "lat": -29.37897995139569, "lon": 4.186910313884792, "alt_km": 413.78020385836135, "timestamp": "2025-12-22T05:49:02.186660+00:00", "meta": {"OBJECT_NAME": "STARLINK-35838", "OBJECT_ID": "2025-280R", "EPOCH": "2025-12-21T20:00:01.999008", "MEAN_MOTION": 15.52543126, "ECCENTRICITY": 0.0003332, "INCLINATION": 70.0002, "RA_OF_ASC_NODE": 173.474, "ARG_OF_PERICENTER": 273.9674, "MEAN_ANOMALY": 172.0268, "EPHEMERIS_TYPE": 0, "CLASSIFICATION_TYPE": "U", "NORAD_CAT_ID": 66836, "ELEMENT_SET_NO": 999, "REV_AT_EPOCH": 435, "BSTAR": -0.0011532, "MEAN_MOTION_DOT": -0.0007055, "MEAN_MOTION_DDOT": 0}, "tle": {"line1": "1 66836U 25280R   25355.83335647 -.00070550  00000+0 -11532-2 0  9997", "line2": "2 66836  70.0002 173.4740 0003332 273.9674 172.0268 15.52543126  4357"}}, "geometry": {"type": "Point", "coordinates": [4.186910313884792, -29.37897995139569]}}, {"type": "Feature", "properties": {"norad_id": 66837, "name": "STARLINK-35729", "group": "last-30-days", "lat": -31.13318338338347, "lon": 5.061145567099065, "alt_km": 413.74231754943503, "timestamp": "2025-12-22T05:49:02.186670+00:00", "meta": {"OBJECT_NAME": "STARLINK-35729", "OBJECT_ID": "2025-280S", "EPOCH": "2025-12-21T20:00:01.999008", "MEAN_MOTION": 15.52541628, "ECCENTRICITY": 0.0003416, "INCLINATION": 70.0003, "RA_OF_ASC_NODE": 173.4718, "ARG_OF_PERICENTER": 272.9895, "MEAN_ANOMALY": 174.9129, "EPHEMERIS_TYPE": 0, "CLASSIFICATION_TYPE": "U", "NORAD_CAT_ID": 66837, "ELEMENT_SET_NO": 999, "REV_AT_EPOCH": 435, "BSTAR": -0.00097984, "MEAN_MOTION_DOT": -0.00060045, "MEAN_MOTION_DDOT": 0}, "tle": {"line1": "1 66837U 25280S   25355.83335647 -.00060045  00000+0 -97984-3 0  9992", "line2": "2 66837  70.0003 173.4718 0003416 272.9895 174.9129 15.52541628  4353"}}, "geometry": {"type": "Point", "coordinates": [5.061145567099065, -31.13318338338347]}}, {"type": "Feature", "properties": {"norad_id": 66838, "name": "STARLINK-35886", "group": "last-30-days", "lat": -34.63233260147535, "lon": 6.917043227717176, "alt_km": 414.0093647401427, "timestamp": "2025-12-22T05:49:02.186680+00:00", "meta": {"OBJECT_NAME": "STARLINK-35886", "OBJECT_ID": "2025-280T", "EPOCH": "2025-12-21T20:00:01.999008", "MEAN_MOTION": 15.52542625, "ECCENTRICITY": 0.0003177, "INCLINATION": 70.0003, "RA_OF_ASC_NODE": 173.4667, "ARG_OF_PERICENTER": 276.0849, "MEAN_ANOMALY": 175.6514, "EPHEMERIS_TYPE": 0, "CLASSIFICATION_TYPE": "U", "NORAD_CAT_ID": 66838, "ELEMENT_SET_NO": 999, "REV_AT_EPOCH": 435, "BSTAR": -0.0010226, "MEAN_MOTION_DOT": -0.00062641, "MEAN_MOTION_DDOT": 0}, "tle": {"line1": "1 66838U 25280T   25355.83335647 -.00062641  00000+0 -10226-2 0  9990", "line2": "2 66838  70.0003 173.4667 0003177 276.0849 175.6514 15.52542625  4359"}}, "geometry": {"type": "Point", "coordinates": [6.917043227717176, -34.63233260147535]}}, {"type": "Feature", "properties": {"norad_id": 66839, "name": "STARLINK-35717", "group": "last-30-days", "lat": -32.88660581077998, "lon": 5.9706848032627535, "alt_km": 413.8402847964999, "timestamp": "2025-12-22T05:49:02.186691+00:00", "meta": {"OBJECT_NAME": "STARLINK-35717", "OBJECT_ID": "2025-280U", "EPOCH": "2025-12-21T20:00:01.999008", "MEAN_MOTION": 15.52544241, "ECCENTRICITY": 0.0003426, "INCLINATION": 70.0003, "RA_OF_ASC_NODE": 173.469, "ARG_OF_PERICENTER": 274.3236, "MEAN_ANOMALY": 175.4995, "EPHEMERIS_TYPE": 0, "CLASSIFICATION_TYPE": "U", "NORAD_CAT_ID": 66839, "ELEMENT_SET_NO": 999, "REV_AT_EPOCH": 435, "BSTAR": -0.0011446, "MEAN_MOTION_DOT": -0.00070036, "MEAN_MOTION_DDOT": 0}, "tle": {"line1": "1 66839U 25280U   25355.83335647 -.00070036  00000+0 -11446-2 0  9993", "line2": "2 66839  70.0003 173.4690 0003426 274.3236 175.4995 15.52544241  4351"}}, "geometry": {"type": "Point", "coordinates": [5.9706848032627535, -32.88660581077998]}}]}